{
  "type": "FeatureCollection",
  "features": [
    {
      "type": "Feature",
      "properties": {
        "norad_id": 37095,
        "name": "COSMOS 2251 DEB",
        "group": "cosmos-2251-debris",
        "lat": -23.30821346104121,
        "lon": 175.5598185596271,
        "alt_km": 898.9696792139903,
        "timestamp": "2025-12-16T19:34:24.666112+00:00",
        "meta_object_name": "COSMOS 2251 DEB",
        "meta_object_id": "1993-036BFR",
        "meta_epoch": "2025-12-14T06:06:08.543520",
        "meta_mean_motion": 14.03409585,
        "meta_eccentricity": 0.019488,
        "meta_inclination": 73.8479,
        "meta_ra_of_asc_node": 187.2421,
        "meta_arg_of_pericenter": 244.7942,
        "meta_mean_anomaly": 113.2877,
        "meta_ephemeris_type": 0,
        "meta_classification_type": "U",
        "meta_norad_cat_id": 37095,
        "meta_element_set_no": 999,
        "meta_rev_at_epoch": 62657,
        "meta_bstar": 0.0017117328,
        "meta_mean_motion_dot": 3.142e-05,
        "meta_mean_motion_ddot": 0,
        "tle_line1": "1 37095U 93036BFR 25348.25426555  .00003142  00000+0  17117-2 0  9999",
        "tle_line2": "2 37095  73.8479 187.2421 0194880 244.7942 113.2877 14.03409585626575"
      },
      "geometry": {
        "type": "Point",
        "coordinates": [
          175.5598185596271,
          -23.30821346104121
        ]
      }
    },
    {
      "type": "Feature",
      "properties": {
        "norad_id": 37108,
        "name": "COSMOS 2251 DEB",
        "group": "cosmos-2251-debris",
        "lat": -31.61253528559346,
        "lon": -96.83983265885097,
        "alt_km": 731.1137624071516,
        "timestamp": "2025-12-16T19:34:24.666123+00:00",
        "meta_object_name": "COSMOS 2251 DEB",
        "meta_object_id": "1993-036BGE",
        "meta_epoch": "2025-12-15T22:36:21.191616",
        "meta_mean_motion": 14.41329864,
        "meta_eccentricity": 0.00910382,
        "meta_inclination": 74.0449,
        "meta_ra_of_asc_node": 74.6348,
        "meta_arg_of_pericenter": 150.5001,
        "meta_mean_anomaly": 210.1338,
        "meta_ephemeris_type": 0,
        "meta_classification_type": "U",
        "meta_norad_cat_id": 37108,
        "meta_element_set_no": 999,
        "meta_rev_at_epoch": 85553,
        "meta_bstar": 0.0008296536,
        "meta_mean_motion_dot": 2.794e-05,
        "meta_mean_motion_ddot": 0,
        "tle_line1": "1 37108U 93036BGE 25349.94191194  .00002794  00000+0  82965-3 0  9995",
        "tle_line2": "2 37108  74.0449  74.6348 0091038 150.5001 210.1338 14.41329864855530"
      },
      "geometry": {
        "type": "Point",
        "coordinates": [
          -96.83983265885097,
          -31.61253528559346
        ]
      }
    },
    {
      "type": "Feature",
      "properties": {
        "norad_id": 37126,
        "name": "COSMOS 2251 DEB",
        "group": "cosmos-2251-debris",
        "lat": -34.65266518006543,
        "lon": 178.02307873375298,
        "alt_km": 571.3374630126846,
        "timestamp": "2025-12-16T19:34:24.666133+00:00",
        "meta_object_name": "COSMOS 2251 DEB",
        "meta_object_id": "1993-036BGY",
        "meta_epoch": "2025-12-15T06:43:54.416352",
        "meta_mean_motion": 14.73082746,
        "meta_eccentricity": 0.01230943,
        "meta_inclination": 73.9533,
        "meta_ra_of_asc_node": 349.5533,
        "meta_arg_of_pericenter": 227.1861,
        "meta_mean_anomaly": 131.8915,
        "meta_ephemeris_type": 0,
        "meta_classification_type": "U",
        "meta_norad_cat_id": 37126,
        "meta_element_set_no": 999,
        "meta_rev_at_epoch": 8136,
        "meta_bstar": 0.00020663432,
        "meta_mean_motion_dot": 1.461e-05,
        "meta_mean_motion_ddot": 0,
        "tle_line1": "1 37126U 93036BGY 25349.28049093  .00001461  00000+0  20663-3 0  9999",
        "tle_line2": "2 37126  73.9533 349.5533 0123094 227.1861 131.8915 14.73082746 81367"
      },
      "geometry": {
        "type": "Point",
        "coordinates": [
          178.02307873375298,
          -34.65266518006543
        ]
      }
    },
    {
      "type": "Feature",
      "properties": {
        "norad_id": 37132,
        "name": "COSMOS 2251 DEB",
        "group": "cosmos-2251-debris",
        "lat": -19.76471752788239,
        "lon": -139.8917080090324,
        "alt_km": 619.7742362569215,
        "timestamp": "2025-12-16T19:34:24.666143+00:00",
        "meta_object_name": "COSMOS 2251 DEB",
        "meta_object_id": "1993-036BHE",
        "meta_epoch": "2025-12-15T09:32:55.769280",
        "meta_mean_motion": 14.77873409,
        "meta_eccentricity": 0.00399597,
        "meta_inclination": 74.0031,
        "meta_ra_of_asc_node": 228.8126,
        "meta_arg_of_pericenter": 24.0962,
        "meta_mean_anomaly": 336.207,
        "meta_ephemeris_type": 0,
        "meta_classification_type": "U",
        "meta_norad_cat_id": 37132,
        "meta_element_set_no": 999,
        "meta_rev_at_epoch": 62455,
        "meta_bstar": 0.00059917342,
        "meta_mean_motion_dot": 4.336e-05,
        "meta_mean_motion_ddot": 0,
        "tle_line1": "1 37132U 93036BHE 25349.39786770  .00004336  00000+0  59917-3 0  9996",
        "tle_line2": "2 37132  74.0031 228.8126 0039959  24.0962 336.2070 14.77873409624553"
      },
      "geometry": {
        "type": "Point",
        "coordinates": [
          -139.8917080090324,
          -19.76471752788239
        ]
      }
    },
    {
      "type": "Feature",
      "properties": {
        "norad_id": 37270,
        "name": "COSMOS 2251 DEB",
        "group": "cosmos-2251-debris",
        "lat": -21.569578838294508,
        "lon": 155.7798085701303,
        "alt_km": 1254.975267788831,
        "timestamp": "2025-12-16T19:34:24.666153+00:00",
        "meta_object_name": "COSMOS 2251 DEB",
        "meta_object_id": "1993-036BHJ",
        "meta_epoch": "2025-12-12T22:45:06.098400",
        "meta_mean_motion": 13.59808663,
        "meta_eccentricity": 0.03985351,
        "meta_inclination": 73.9378,
        "meta_ra_of_asc_node": 335.5481,
        "meta_arg_of_pericenter": 347.3958,
        "meta_mean_anomaly": 11.7404,
        "meta_ephemeris_type": 0,
        "meta_classification_type": "U",
        "meta_norad_cat_id": 37270,
        "meta_element_set_no": 999,
        "meta_rev_at_epoch": 77072,
        "meta_bstar": 0.0064936549,
        "meta_mean_motion_dot": 8.148e-05,
        "meta_mean_motion_ddot": 0,
        "tle_line1": "1 37270U 93036BHJ 25346.94798725  .00008148  00000+0  64937-2 0  9992",
        "tle_line2": "2 37270  73.9378 335.5481 0398535 347.3958  11.7404 13.59808663770728"
      },
      "geometry": {
        "type": "Point",
        "coordinates": [
          155.7798085701303,
          -21.569578838294508
        ]
      }
    },
    {
      "type": "Feature",
      "properties": {
        "norad_id": 37278,
        "name": "COSMOS 2251 DEB",
        "group": "cosmos-2251-debris",
        "lat": -35.60255416484837,
        "lon": -30.07076981957985,
        "alt_km": 1048.6674755131635,
        "timestamp": "2025-12-16T19:34:24.666163+00:00",
        "meta_object_name": "COSMOS 2251 DEB",
        "meta_object_id": "1993-036BHS",
        "meta_epoch": "2025-12-04T09:26:36.152736",
        "meta_mean_motion": 14.15029915,
        "meta_eccentricity": 0.029998,
        "meta_inclination": 73.7864,
        "meta_ra_of_asc_node": 4.3592,
        "meta_arg_of_pericenter": 188.2556,
        "meta_mean_anomaly": 234.4903,
        "meta_ephemeris_type": 0,
        "meta_classification_type": "U",
        "meta_norad_cat_id": 37278,
        "meta_element_set_no": 999,
        "meta_rev_at_epoch": 63711,
        "meta_bstar": 0.0023061,
        "meta_mean_motion_dot": 6.884e-05,
        "meta_mean_motion_ddot": 0,
        "tle_line1": "1 37278U 93036BHS 25338.39347399  .00006884  00000+0  23061-2 0  9995",
        "tle_line2": "2 37278  73.7864   4.3592 0299980 188.2556 234.4903 14.15029915637119"
      },
      "geometry": {
        "type": "Point",
        "coordinates": [
          -30.07076981957985,
          -35.60255416484837
        ]
      }
    },
    {
      "type": "Feature",
      "properties": {
        "norad_id": 37280,
        "name": "COSMOS 2251 DEB",
        "group": "cosmos-2251-debris",
        "lat": -28.05532891133087,
        "lon": 41.00627581473811,
        "alt_km": 916.9874025403851,
        "timestamp": "2025-12-16T19:34:24.666173+00:00",
        "meta_object_name": "COSMOS 2251 DEB",
        "meta_object_id": "1993-036BHU",
        "meta_epoch": "2025-12-14T22:02:27.434112",
        "meta_mean_motion": 14.19330541,
        "meta_eccentricity": 0.01308275,
        "meta_inclination": 74.0321,
        "meta_ra_of_asc_node": 53.1735,
        "meta_arg_of_pericenter": 181.3662,
        "meta_mean_anomaly": 178.7145,
        "meta_ephemeris_type": 0,
        "meta_classification_type": "U",
        "meta_norad_cat_id": 37280,
        "meta_element_set_no": 999,
        "meta_rev_at_epoch": 57354,
        "meta_bstar": 0.00096264954,
        "meta_mean_motion_dot": 2.177e-05,
        "meta_mean_motion_ddot": 0,
        "tle_line1": "1 37280U 93036BHU 25348.91837308  .00002177  00000+0  96265-3 0  9999",
        "tle_line2": "2 37280  74.0321  53.1735 0130827 181.3662 178.7145 14.19330541573549"
      },
      "geometry": {
        "type": "Point",
        "coordinates": [
          41.00627581473811,
          -28.05532891133087
        ]
      }
    }
  ]
}